[{"OBJECT_NAME":"HAWK-5B","OBJECT_ID":"2022-057AA","EPOCH":"2026-03-09T22:02:04.567488","MEAN_MOTION":15.47549046,"ECCENTRICITY":0.00055009,"INCLINATION":97.6458,"RA_OF_ASC_NODE":220.9014,"ARG_OF_PERICENTER":70.2487,"MEAN_ANOMALY":289.9355,"EPHEMERIS_TYPE":0,"CLASSIFICATION_TYPE":"U","NORAD_CAT_ID":52756,"ELEMENT_SET_NO":999,"REV_AT_EPOCH":21097,"BSTAR":0.00045271337,"MEAN_MOTION_DOT":0.00023244,"MEAN_MOTION_DDOT":0},{"OBJECT_NAME":"BANDWAGON-2 OBJECT V","OBJECT_ID":"2024-247V","EPOCH":"2026-03-09T10:44:24.989280","MEAN_MOTION":15.44431692,"ECCENTRICITY":0.00083159,"INCLINATION":44.9939,"RA_OF_ASC_NODE":91.7715,"ARG_OF_PERICENTER":16.2729,"MEAN_ANOMALY":343.8426,"EPHEMERIS_TYPE":0,"CLASSIFICATION_TYPE":"U","NORAD_CAT_ID":62396,"ELEMENT_SET_NO":999,"REV_AT_EPOCH":6801,"BSTAR":0.0008906217,"MEAN_MOTION_DOT":0.00042031,"MEAN_MOTION_DDOT":0}]
